ASTERIA                 
1 43020U 98067NH  18337.13257318  .00020362  00000-0  22052-3 0  9998
2 43020  51.6418 243.2268 0003166  96.4952 263.6403 15.63536322 58883
DELLINGR (RBLE)         
1 43021U 98067NJ  18337.33267080  .00007995  00000-0  10364-3 0  9998
2 43021  51.6392 246.7523 0003171  85.9536 274.1819 15.59876750 58856
OSIRIS-3U               
1 43027U 98067NL  18337.20755244  .00083427  00000-0  46940-3 0  9997
2 43027  51.6364 227.7799 0005026 124.2505 235.8972 15.78484032 58975
AEROCUBE 7B             
1 43042U 17071F   18336.91102431  .00005701  00000-0  15077-3 0  9997
2 43042  51.6385 298.9174 0005034 150.9064 209.2202 15.39927688 55599
AEROCUBE 7C             
1 43043U 17071G   18337.10555626  .00003081  00000-0  86151-4 0  9999
2 43043  51.6392 297.9755 0005148 152.6186 207.5070 15.39906189 55599
CHEFSAT                 
1 43044U 17071H   18337.49840817  .00006370  00000-0  15879-3 0  9993
2 43044  51.6392 293.9058 0005003 151.4612 208.6648 15.41529187 55688
ASGARDIA 1              
1 43049U 17071N   18336.94321778  .00002802  00000-0  78950-4 0  9993
2 43049  51.6396 298.4051 0002483 163.1280 196.9787 15.40027162 55576
ISARA                   
1 43050U 17071P   18336.94146711  .00005164  00000-0  13190-3 0  9995
2 43050  51.6387 296.9177 0002343 156.0618 204.0476 15.41218381 55595
FAUNA                   
1 43052U 17071R   18337.10866764  .00003487  00000-0  95217-4 0  9990
2 43052  51.6396 297.2735 0002437 158.3783 201.7305 15.40221960 55594
CORVUS BC3              
1 43118U 18004H   18336.73549144  .00000747  00000-0  35283-4 0  9991
2 43118  97.5138  39.4884 0009532 218.5323 141.5234 15.22522009 49350
MICROMAS-2A             
1 43131U 18004W   18336.74889161  .00001682  00000-0  73718-4 0  9997
2 43131  97.5152  39.8143 0008618 220.7244 139.3349 15.23394896 49370
GOMX4-B                 
1 43196U 18015E   18336.91869337  .00000406  00000-0  19795-4 0  9990
2 43196  97.3674 102.6337 0017636 285.2120  74.7166 15.23769372 46226
GOMX4-A                 
1 43197U 18015F   18337.45040646  .00000345  00000-0  17229-4 0  9997
2 43197  97.3679 103.1637 0017635 284.3769 145.4927 15.23838242 46313
1KUNS-PF                
1 43466U 98067NP  18337.18188069  .00017226  00000-0  21777-3 0  9991
2 43466  51.6393 251.7358 0001642  93.4535 266.6646 15.59635289 32032
UBAKUSAT                
1 43467U 98067NQ  18337.17742335  .00011610  00000-0  15545-3 0  9990
2 43467  51.6386 252.4555 0003282  59.9998 300.1320 15.58488928 32032
BATSU-CS1 (IRAZU)       
1 43468U 98067NR  18337.12908009  .00020193  00000-0  24582-3 0  9995
2 43468  51.6389 251.3824 0001642  96.4201 263.6979 15.60508267132029
CUBERRT                 
1 43546U 98067NU  18337.14980936  .00027053  00000-0  35836-3 0  9999
2 43546  51.6388 254.5130 0006840 108.0001 252.1737 15.58059342 22130
TEMPEST-D               
1 43547U 98067NV  18336.89334975  .00003709  00000-0  59466-4 0  9995
2 43547  51.6391 256.5449 0006778 102.3924 257.7826 15.55880844 21765
RAINCUBE                
1 43548U 98067NW  18337.18011078  .00012039  00000-0  17007-3 0  9995
2 43548  51.6388 254.7112 0006878 112.9711 247.2007 15.56985393 22268
HALOSAT                 
1 43549U 98067NX  18336.85970603  .00013588  00000-0  19097-3 0  9998
2 43549  51.6390 256.3227 0006809 113.5687 246.6020 15.56995140 21774
ENDUROSAT ONE           
1 43551U 98067NZ  18337.26973770  .00012975  00000-0  17850-3 0  9999
2 43551  51.6388 253.8089 0007349 120.8666 239.3050 15.57618334 22254
EQUISAT                 
1 43552U 98067PA  18337.15536238  .00011262  00000-0  15797-3 0  9998
2 43552  51.6388 254.5473 0007551 121.1928 238.9805 15.57251670 22192
AEROCUBE 12A            
1 43556U 18046C   18337.12077418  .00001639  00000-0  71762-4 0  9990
2 43556  51.6437 283.9078 0009103  83.5639 276.6377 15.28074066 21342
AEROCUBE 12B            
1 43557U 18046D   18337.12278297  .00001544  00000-0  68453-4 0  9997
2 43557  51.6436 283.9202 0009072  83.7974 276.4039 15.28022638 21295
UITMSAT-1               
1 43589U 98067PD  18336.81925015  .00013437  00000-0  18955-3 0  9990
2 43589  51.6386 256.7977 0006891 126.8187 233.3438 15.56906907 17877
MAYA-1                  
1 43590U 98067PE  18336.88141740  .00012243  00000-0  17317-3 0  9999
2 43590  51.6387 256.4636 0006949 127.7231 232.4392 15.56931468 17816
BHUTAN-1                
1 43591U 98067PF  18336.94268932  .00012124  00000-0  17129-3 0  9999
2 43591  51.6387 256.1233 0007022 129.2420 230.9196 15.56974883 17821
SIRIUSSAT-1             
1 43595U 98067PG  18336.84828620  .00012738  00000-0  18295-3 0  9994
2 43595  51.6387 256.9881 0004741  88.2879 271.8655 15.56483421 16982
SIRIUSSAT-2             
1 43596U 98067PH  18337.17951951  .00012877  00000-0  18588-3 0  9995
2 43596  51.6396 255.4611 0005391  91.3310 268.8299 15.56332727 17034
TANUSHA-3               
1 43597U 98067PJ  18336.84460617  .00015965  00000-0  22517-3 0  9991
2 43597  51.6375 256.9528 0004993 100.9093 259.2461 15.56757594 16988
SURFSAT                 
1 43614U 18070B   18336.87515765  .00002358  00000-0  66025-4 0  9990
2 43614  93.0336 281.8809 0016900 358.6849   1.4355 15.36584134 12022
CP-7 (DAVE)             
1 43615U 18070C   18337.52620739  .00002187  00000-0  61258-4 0  9995
2 43615  93.0335 282.1501 0016914 355.6167   4.4936 15.36579526 12128
ELFIN-B                 
1 43616U 18070D   18337.39051992 -.00000007  00000-0  00000+0 0  9993
2 43616  93.0344 282.0615 0017550   0.2506 359.9206 15.36751943 12102
ELFIN-A                 
1 43617U 18070E   18336.60750246 -.00000007  00000-0  00000+0 0  9995
2 43617  93.0376 281.7992 0017091 359.6985   0.4401 15.36782123 11988
DEBRISSAT-1             
1 43621U 98067PM  18337.15212652  .00072260  00000-0  73526-3 0  9995
2 43621  51.6471 253.0711 0009375 117.8231 242.3760 15.64434116 12055
CUBEBEL-1 (BSUSAT-1)    
1 43666U 18083E   18337.44557927  .00000928  00000-0  50084-4 0  9990
2 43666  97.5374 358.1367 0015959 147.6530 318.2770 15.17158534  5373
DEBRISSAT-2             
1 43680U 98067PR  18337.34819094  .00011604  00000-0  16840-3 0  9995
2 43680  51.6433 254.3217 0004931 115.1782 244.9723 15.56304698 25804
